NORAD_CAT_ID,OBJECT_NAME,OBJECT_TYPE,EPOCH,MEAN_MOTION,ECCENTRICITY,INCLINATION,RA_OF_ASC_NODE,ARG_OF_PERICENTER,MEAN_ANOMALY,BSTAR,MEAN_MOTION_DOT,MEAN_MOTION_DDOT,TLE_LINE0,TLE_LINE1,TLE_LINE2,SEMIMAJOR_AXIS,PERIOD,APOGEE,PERIGEE,DECAYED
55646.0,STARLINK-5104,PAYLOAD,2024-07-14 14:49:31,14.9834396,0.00033,69.9985,265.1493,274.6876,85.3906,0.00023713,2.739e-05,0.0,0 STARLINK-5104,1 55646U 23021U   24196.61772642  .00002739  00000-0  23713-3 0  9991,2 55646  69.9985 265.1493 0003300 274.6876  85.3906 14.98343960 78452,6950.15,96.106,574.308,569.721,0.0
55646.0,STARLINK-5104,PAYLOAD,2024-07-15 05:14:44,14.98335851,0.0003163,69.9988,263.6343,275.3062,84.7736,-1.5471e-05,-2.78e-06,0.0,0 STARLINK-5104,1 55646U 23021U   24197.21857509 -.00000278  00000-0 -15471-4 0  9995,2 55646  69.9988 263.6343 0003163 275.3062  84.7736 14.98335851 78245,6950.175,96.107,574.238,569.841,0.0
55646.0,STARLINK-5104,PAYLOAD,2024-07-15 13:15:25,14.98335238,0.0003179,69.9988,262.7927,275.4115,84.6681,-2.027e-05,-3.35e-06,0.0,0 STARLINK-5104,1 55646U 23021U   24197.55237407 -.00000335  00000-0 -20270-4 0  9998,2 55646  69.9988 262.7927 0003179 275.4115  84.6681 14.98335238 78595,6950.177,96.107,574.251,569.832,0.0
55646.0,STARLINK-5104,PAYLOAD,2024-07-15 21:16:05,14.98336462,0.0003183,69.9988,261.9509,275.4637,84.6158,-3.2614e-05,-4.82e-06,0.0,0 STARLINK-5104,1 55646U 23021U   24197.88617159 -.00000482  00000-0 -32614-4 0  9998,2 55646  69.9988 261.9509 0003183 275.4637  84.6158 14.98336462 78641,6950.173,96.107,574.25,569.826,0.0
55646.0,STARLINK-5104,PAYLOAD,2024-07-16 05:16:45,14.9834164,0.0003114,69.9989,261.1094,275.9629,84.1176,-8.0946e-05,-1.059e-05,0.0,0 STARLINK-5104,1 55646U 23021U   24198.21996786 -.00001059  00000-0 -80946-4 0  9994,2 55646  69.9989 261.1094 0003114 275.9629  84.1176 14.98341640 78394,6950.157,96.106,574.186,569.858,0.0
55646.0,STARLINK-5104,PAYLOAD,2024-07-16 13:17:25,14.98339934,0.0003131,69.9988,260.2681,273.9414,86.1387,-9.5515e-05,-1.233e-05,0.0,0 STARLINK-5104,1 55646U 23021U   24198.55376678 -.00001233  00000-0 -95515-4 0  9995,2 55646  69.9988 260.2681 0003131 273.9414  86.1387 14.98339934 78742,6950.162,96.106,574.203,569.851,0.0
55646.0,STARLINK-5104,PAYLOAD,2024-07-17 05:18:46,14.98330864,0.0003158,69.9986,258.5846,268.9429,91.1368,2.1394e-05,1.62e-06,0.0,0 STARLINK-5104,1 55646U 23021U   24199.22136610  .00000162  00000-0  21394-4 0  9992,2 55646  69.9986 258.5846 0003158 268.9429  91.1368 14.98330864 78548,6950.19,96.107,574.25,569.86,0.0
55646.0,STARLINK-5104,PAYLOAD,2024-07-17 13:19:26,14.9833161,0.0003181,69.9985,257.743,269.3622,90.7172,2.8166e-05,2.43e-06,0.0,0 STARLINK-5104,1 55646U 23021U   24199.55516571  .00000243  00000-0  28166-4 0  9990,2 55646  69.9985 257.7430 0003181 269.3622  90.7172 14.98331610 78899,6950.188,96.107,574.264,569.842,0.0
55646.0,STARLINK-5104,PAYLOAD,2024-07-18 05:20:47,14.98328975,0.0003155,69.9985,256.0598,269.2589,90.8208,-1.5744e-05,-2.81e-06,0.0,0 STARLINK-5104,1 55646U 23021U   24200.22276840 -.00000281  00000-0 -15744-4 0  9991,2 55646  69.9985 256.0598 0003155 269.2589  90.8208 14.98328975 78697,6950.196,96.107,574.254,569.868,0.0
55646.0,STARLINK-5104,PAYLOAD,2024-07-18 13:21:27,14.98328433,0.0003164,69.9985,255.2178,268.1663,91.9134,-2.003e-05,-3.32e-06,0.0,0 STARLINK-5104,1 55646U 23021U   24200.55656900 -.00000332  00000-0 -20030-4 0  9997,2 55646  69.9985 255.2178 0003164 268.1663  91.9134 14.98328433 79042,6950.198,96.107,574.262,569.864,0.0
55646.0,STARLINK-5104,PAYLOAD,2024-07-19 05:22:47,14.98333783,0.0003205,69.9983,253.534,267.8387,92.2405,7.0454e-05,7.48e-06,0.0,0 STARLINK-5104,1 55646U 23021U   24201.22416279  .00000748  00000-0  70454-4 0  9999,2 55646  69.9983 253.5340 0003205 267.8387  92.2405 14.98333783 78843,6950.181,96.107,574.274,569.819,0.0
55646.0,STARLINK-5104,PAYLOAD,2024-07-19 13:23:27,14.98339958,0.0003173,69.9985,252.6932,268.6165,91.4631,0.00013495,1.518e-05,0.0,0 STARLINK-5104,1 55646U 23021U   24201.55795573  .00001518  00000-0  13495-3 0  9999,2 55646  69.9985 252.6932 0003173 268.6165  91.4631 14.98339958 79190,6950.162,96.106,574.232,569.822,0.0
55646.0,STARLINK-5104,PAYLOAD,2024-07-19 21:24:08,14.98331506,0.0003254,69.9982,251.8506,269.7399,90.3388,4.3861e-05,4.3e-06,0.0,0 STARLINK-5104,1 55646U 23021U   24201.89176192  .00000430  00000-0  43861-4 0  9999,2 55646  69.9982 251.8506 0003254 269.7399  90.3388 14.98331506 79240,6950.188,96.107,574.315,569.792,0.0
55646.0,STARLINK-5104,PAYLOAD,2024-07-20 05:24:48,14.98327872,0.0003207,69.9982,251.0092,269.2159,90.8632,1.6509e-05,1.04e-06,0.0,0 STARLINK-5104,1 55646U 23021U   24202.22556518  .00000104  00000-0  16509-4 0  9998,2 55646  69.9982 251.0092 0003207 269.2159  90.8632 14.98327872 78998,6950.199,96.107,574.293,569.836,0.0
55646.0,STARLINK-5104,PAYLOAD,2024-07-20 13:25:29,14.98328948,0.0003205,69.9982,250.1676,269.2785,90.8007,2.6173e-05,2.19e-06,0.0,0 STARLINK-5104,1 55646U 23021U   24202.55936457  .00000219  00000-0  26173-4 0  9993,2 55646  69.9982 250.1676 0003205 269.2785  90.8007 14.98328948 79340,6950.196,96.107,574.289,569.834,0.0
55646.0,STARLINK-5104,PAYLOAD,2024-07-21 05:26:49,14.98335868,0.0003141,69.9983,248.4842,270.2868,89.7931,-5.074e-05,-6.99e-06,0.0,0 STARLINK-5104,1 55646U 23021U   24203.22696205 -.00000699  00000-0 -50740-4 0  9993,2 55646  69.9983 248.4842 0003141 270.2868  89.7931 14.98335868 79149,6950.175,96.107,574.223,569.857,0.0
55646.0,STARLINK-5104,PAYLOAD,2024-07-21 13:27:29,14.98335582,0.000315,69.9984,247.6426,270.4484,89.6314,-4.4667e-05,-6.26e-06,0.0,0 STARLINK-5104,1 55646U 23021U   24203.56076106 -.00000626  00000-0 -44667-4 0  9993,2 55646  69.9984 247.6426 0003150 270.4484  89.6314 14.98335582 79490,6950.176,96.107,574.23,569.851,0.0
55646.0,STARLINK-5104,PAYLOAD,2024-07-22 05:28:50,14.98328173,0.0003171,69.9984,245.9594,270.905,89.1746,3.4585e-05,3.2e-06,0.0,0 STARLINK-5104,1 55646U 23021U   24204.22836261  .00000320  00000-0  34585-4 0  9990,2 55646  69.9984 245.9594 0003171 270.9050  89.1746 14.98328173 79294,6950.199,96.107,574.267,569.86,0.0
55646.0,STARLINK-5104,PAYLOAD,2024-07-22 13:29:30,14.98329508,0.0003172,69.9985,245.1179,270.2601,89.8194,4.255e-05,4.15e-06,0.0,0 STARLINK-5104,1 55646U 23021U   24204.56216186  .00000415  00000-0  42550-4 0  9991,2 55646  69.9985 245.1179 0003172 270.2601  89.8194 14.98329508 79648,6950.194,96.107,574.264,569.855,0.0
55646.0,STARLINK-5104,PAYLOAD,2024-07-23 10:19:15,14.98329975,0.0003161,69.9988,242.9298,269.3897,90.69,1.8035e-05,1.22e-06,0.0,0 STARLINK-5104,1 55646U 23021U   24205.43004235  .00000122  00000-0  18035-4 0  9994,2 55646  69.9988 242.9298 0003161 269.3897  90.6900 14.98329975 79476,6950.193,96.107,574.255,569.861,0.0
55646.0,STARLINK-5104,PAYLOAD,2024-07-24 11:57:24,14.98327376,0.0003177,69.9988,240.2364,269.0378,91.0417,7.57e-06,-3e-08,0.0,0 STARLINK-5104,1 55646U 23021U   24206.49820506 -.00000003  00000-0  75700-5 0  9990,2 55646  69.9988 240.2364 0003177 269.0378  91.0417 14.98327376 79638,6950.201,96.107,574.274,569.858,0.0
55646.0,STARLINK-5104,PAYLOAD,2024-07-25 05:34:53,14.98331195,0.0003258,69.9985,238.3846,269.4193,90.6593,3.8312e-05,3.64e-06,0.0,0 STARLINK-5104,1 55646U 23021U   24207.23256176  .00000364  00000-0  38312-4 0  9995,2 55646  69.9985 238.3846 0003258 269.4193  90.6593 14.98331195 80048,6950.189,96.107,574.319,569.79,0.0
55646.0,STARLINK-5104,PAYLOAD,2024-07-25 10:23:17,14.98331691,0.0003259,69.9987,237.8797,269.5257,90.5529,4.2531e-05,4.14e-06,0.0,0 STARLINK-5104,1 55646U 23021U   24207.43284126  .00000414  00000-0  42531-4 0  9997,2 55646  69.9987 237.8797 0003259 269.5257  90.5529 14.98331691 80074,6950.188,96.107,574.318,569.788,0.0
55646.0,STARLINK-5104,PAYLOAD,2024-07-26 05:36:54,14.98332361,0.0003313,69.9986,235.8596,269.4667,90.6113,6.5306e-05,6.86e-06,0.0,0 STARLINK-5104,1 55646U 23021U   24208.23395880  .00000686  00000-0  65306-4 0  9992,2 55646  69.9986 235.8596 0003313 269.4667  90.6113 14.98332361 79896,6950.186,96.107,574.353,569.748,0.0
55646.0,STARLINK-5104,PAYLOAD,2024-07-26 10:25:18,14.9833403,0.0003277,69.9987,235.3549,268.6023,91.4761,8.094e-05,8.73e-06,0.0,0 STARLINK-5104,1 55646U 23021U   24208.43423685  .00000873  00000-0  80940-4 0  9998,2 55646  69.9987 235.3549 0003277 268.6023  91.4761 14.98334030 80228,6950.18,96.107,574.323,569.768,0.0
55646.0,STARLINK-5104,PAYLOAD,2024-07-27 05:38:54,14.98331956,0.0003249,69.9988,233.335,268.6068,91.4719,2.3819e-07,-9e-07,0.0,0 STARLINK-5104,1 55646U 23021U   24209.23535865 -.00000090  00000-0  23819-6 0  9997,2 55646  69.9988 233.3350 0003249 268.6068  91.4719 14.98331956 80042,6950.187,96.107,574.31,569.794,0.0
55646.0,STARLINK-5104,PAYLOAD,2024-07-27 12:03:27,14.98332682,0.0003242,69.9988,232.6617,268.7047,91.3741,7.7727e-06,0.0,0.0,0 STARLINK-5104,1 55646U 23021U   24209.50239747  .00000000  00000-0  77727-5 0  9993,2 55646  69.9988 232.6617 0003242 268.7047  91.3741 14.98332682 80389,6950.185,96.107,574.303,569.796,0.0
55646.0,STARLINK-5104,PAYLOAD,2024-07-28 05:40:56,14.98329621,0.0003187,69.9989,230.8102,269.0601,91.0193,-5.2955e-05,-7.25e-06,0.0,0 STARLINK-5104,1 55646U 23021U   24210.23676056 -.00000725  00000-0 -52955-4 0  9994,2 55646  69.9989 230.8102 0003187 269.0601  91.0193 14.98329621 80193,6950.194,96.107,574.274,569.844,0.0
55646.0,STARLINK-5104,PAYLOAD,2024-07-28 12:05:28,14.98329021,0.0003149,69.9991,230.1374,267.6271,92.4528,-4.4901e-05,-6.29e-06,0.0,0 STARLINK-5104,1 55646U 23021U   24210.50380071 -.00000629  00000-0 -44901-4 0  9998,2 55646  69.9991 230.1374 0003149 267.6271  92.4528 14.98329021 80534,6950.196,96.107,574.25,569.872,0.0
55646.0,STARLINK-5104,PAYLOAD,2024-07-29 05:42:56,14.98330719,0.0003246,69.9988,228.2855,267.6167,92.462,1.2663e-05,5.8e-07,0.0,0 STARLINK-5104,1 55646U 23021U   24211.23815771  .00000058  00000-0  12663-4 0  9993,2 55646  69.9988 228.2855 0003246 267.6167  92.4620 14.98330719 80342,6950.191,96.107,574.312,569.8,0.0
